<?xml version="1.0" encoding="UTF-8"?>
<ndm xmlns:xsi="http://www.w3.org/2001/XMLSchema-instance" xsi:noNamespaceSchemaLocation="https://sanaregistry.org/r/ndmxml_unqualified/ndmxml-2.0.0-master-2.0.xsd">
<omm id="CCSDS_OMM_VERS" version="2.0">
<header><CREATION_DATE/><ORIGINATOR/></header><body><segment><metadata><OBJECT_NAME>KUIPER-00136</OBJECT_NAME><OBJECT_ID>2025-228R</OBJECT_ID><CENTER_NAME>EARTH</CENTER_NAME><REF_FRAME>TEME</REF_FRAME><TIME_SYSTEM>UTC</TIME_SYSTEM><MEAN_ELEMENT_THEORY>SGP4</MEAN_ELEMENT_THEORY></metadata><data><meanElements><EPOCH>2025-12-30T08:00:01.999872</EPOCH><MEAN_MOTION>15.08720783</MEAN_MOTION><ECCENTRICITY>.0005284</ECCENTRICITY><INCLINATION>51.8896</INCLINATION><RA_OF_ASC_NODE>297.2477</RA_OF_ASC_NODE><ARG_OF_PERICENTER>102.1855</ARG_OF_PERICENTER><MEAN_ANOMALY>46.0515</MEAN_ANOMALY></meanElements><tleParameters><EPHEMERIS_TYPE>0</EPHEMERIS_TYPE><CLASSIFICATION_TYPE>U</CLASSIFICATION_TYPE><NORAD_CAT_ID>65962</NORAD_CAT_ID><ELEMENT_SET_NO>999</ELEMENT_SET_NO><REV_AT_EPOCH>274</REV_AT_EPOCH><BSTAR>-.51949907E-2</BSTAR><MEAN_MOTION_DOT>-.81858E-3</MEAN_MOTION_DOT><MEAN_MOTION_DDOT>0</MEAN_MOTION_DDOT></tleParameters></data></segment></body></omm>
<omm id="CCSDS_OMM_VERS" version="2.0">
<header><CREATION_DATE/><ORIGINATOR/></header><body><segment><metadata><OBJECT_NAME>KUIPER-00137</OBJECT_NAME><OBJECT_ID>2025-228S</OBJECT_ID><CENTER_NAME>EARTH</CENTER_NAME><REF_FRAME>TEME</REF_FRAME><TIME_SYSTEM>UTC</TIME_SYSTEM><MEAN_ELEMENT_THEORY>SGP4</MEAN_ELEMENT_THEORY></metadata><data><meanElements><EPOCH>2025-12-30T08:00:01.999872</EPOCH><MEAN_MOTION>15.20656240</MEAN_MOTION><ECCENTRICITY>.00058247</ECCENTRICITY><INCLINATION>51.8850</INCLINATION><RA_OF_ASC_NODE>296.2795</RA_OF_ASC_NODE><ARG_OF_PERICENTER>92.8016</ARG_OF_PERICENTER><MEAN_ANOMALY>247.9258</MEAN_ANOMALY></meanElements><tleParameters><EPHEMERIS_TYPE>0</EPHEMERIS_TYPE><CLASSIFICATION_TYPE>U</CLASSIFICATION_TYPE><NORAD_CAT_ID>65963</NORAD_CAT_ID><ELEMENT_SET_NO>999</ELEMENT_SET_NO><REV_AT_EPOCH>326</REV_AT_EPOCH><BSTAR>-.48655302E-1</BSTAR><MEAN_MOTION_DOT>-.997616E-2</MEAN_MOTION_DOT><MEAN_MOTION_DDOT>0</MEAN_MOTION_DDOT></tleParameters></data></segment></body></omm>
<omm id="CCSDS_OMM_VERS" version="2.0">
<header><CREATION_DATE/><ORIGINATOR/></header><body><segment><metadata><OBJECT_NAME>KUIPER-00138</OBJECT_NAME><OBJECT_ID>2025-228T</OBJECT_ID><CENTER_NAME>EARTH</CENTER_NAME><REF_FRAME>TEME</REF_FRAME><TIME_SYSTEM>UTC</TIME_SYSTEM><MEAN_ELEMENT_THEORY>SGP4</MEAN_ELEMENT_THEORY></metadata><data><meanElements><EPOCH>2025-12-30T08:00:01.999872</EPOCH><MEAN_MOTION>15.30667943</MEAN_MOTION><ECCENTRICITY>.00076779</ECCENTRICITY><INCLINATION>51.8802</INCLINATION><RA_OF_ASC_NODE>295.8526</RA_OF_ASC_NODE><ARG_OF_PERICENTER>85.0939</ARG_OF_PERICENTER><MEAN_ANOMALY>94.5360</MEAN_ANOMALY></meanElements><tleParameters><EPHEMERIS_TYPE>0</EPHEMERIS_TYPE><CLASSIFICATION_TYPE>U</CLASSIFICATION_TYPE><NORAD_CAT_ID>65964</NORAD_CAT_ID><ELEMENT_SET_NO>999</ELEMENT_SET_NO><REV_AT_EPOCH>471</REV_AT_EPOCH><BSTAR>-.380268E-1</BSTAR><MEAN_MOTION_DOT>-.1052246E-1</MEAN_MOTION_DOT><MEAN_MOTION_DDOT>0</MEAN_MOTION_DDOT></tleParameters></data></segment></body></omm>
<omm id="CCSDS_OMM_VERS" version="2.0">
<header><CREATION_DATE/><ORIGINATOR/></header><body><segment><metadata><OBJECT_NAME>KUIPER-00140</OBJECT_NAME><OBJECT_ID>2025-228U</OBJECT_ID><CENTER_NAME>EARTH</CENTER_NAME><REF_FRAME>TEME</REF_FRAME><TIME_SYSTEM>UTC</TIME_SYSTEM><MEAN_ELEMENT_THEORY>SGP4</MEAN_ELEMENT_THEORY></metadata><data><meanElements><EPOCH>2025-12-30T08:00:01.999872</EPOCH><MEAN_MOTION>15.19442690</MEAN_MOTION><ECCENTRICITY>.00071949</ECCENTRICITY><INCLINATION>51.8833</INCLINATION><RA_OF_ASC_NODE>296.6036</RA_OF_ASC_NODE><ARG_OF_PERICENTER>76.8377</ARG_OF_PERICENTER><MEAN_ANOMALY>58.8437</MEAN_ANOMALY></meanElements><tleParameters><EPHEMERIS_TYPE>0</EPHEMERIS_TYPE><CLASSIFICATION_TYPE>U</CLASSIFICATION_TYPE><NORAD_CAT_ID>65965</NORAD_CAT_ID><ELEMENT_SET_NO>999</ELEMENT_SET_NO><REV_AT_EPOCH>505</REV_AT_EPOCH><BSTAR>-.46443935E-1</BSTAR><MEAN_MOTION_DOT>-.925002E-2</MEAN_MOTION_DOT><MEAN_MOTION_DDOT>0</MEAN_MOTION_DDOT></tleParameters></data></segment></body></omm>
<omm id="CCSDS_OMM_VERS" version="2.0">
<header><CREATION_DATE/><ORIGINATOR/></header><body><segment><metadata><OBJECT_NAME>KUIPER-00141</OBJECT_NAME><OBJECT_ID>2025-228V</OBJECT_ID><CENTER_NAME>EARTH</CENTER_NAME><REF_FRAME>TEME</REF_FRAME><TIME_SYSTEM>UTC</TIME_SYSTEM><MEAN_ELEMENT_THEORY>SGP4</MEAN_ELEMENT_THEORY></metadata><data><meanElements><EPOCH>2025-12-30T08:00:01.999872</EPOCH><MEAN_MOTION>15.35334834</MEAN_MOTION><ECCENTRICITY>.00044924</ECCENTRICITY><INCLINATION>51.8794</INCLINATION><RA_OF_ASC_NODE>295.4464</RA_OF_ASC_NODE><ARG_OF_PERICENTER>94.4975</ARG_OF_PERICENTER><MEAN_ANOMALY>274.3560</MEAN_ANOMALY></meanElements><tleParameters><EPHEMERIS_TYPE>0</EPHEMERIS_TYPE><CLASSIFICATION_TYPE>U</CLASSIFICATION_TYPE><NORAD_CAT_ID>65966</NORAD_CAT_ID><ELEMENT_SET_NO>999</ELEMENT_SET_NO><REV_AT_EPOCH>424</REV_AT_EPOCH><BSTAR>-.49630531E-1</BSTAR><MEAN_MOTION_DOT>-.155568E-1</MEAN_MOTION_DOT><MEAN_MOTION_DDOT>0</MEAN_MOTION_DDOT></tleParameters></data></segment></body></omm>
<omm id="CCSDS_OMM_VERS" version="2.0">
<header><CREATION_DATE/><ORIGINATOR/></header><body><segment><metadata><OBJECT_NAME>KUIPER-00146</OBJECT_NAME><OBJECT_ID>2025-228W</OBJECT_ID><CENTER_NAME>EARTH</CENTER_NAME><REF_FRAME>TEME</REF_FRAME><TIME_SYSTEM>UTC</TIME_SYSTEM><MEAN_ELEMENT_THEORY>SGP4</MEAN_ELEMENT_THEORY></metadata><data><meanElements><EPOCH>2025-12-30T08:00:01.999872</EPOCH><MEAN_MOTION>15.29514105</MEAN_MOTION><ECCENTRICITY>.00072835</ECCENTRICITY><INCLINATION>51.8803</INCLINATION><RA_OF_ASC_NODE>295.8522</RA_OF_ASC_NODE><ARG_OF_PERICENTER>90.8704</ARG_OF_PERICENTER><MEAN_ANOMALY>74.8766</MEAN_ANOMALY></meanElements><tleParameters><EPHEMERIS_TYPE>0</EPHEMERIS_TYPE><CLASSIFICATION_TYPE>U</CLASSIFICATION_TYPE><NORAD_CAT_ID>65967</NORAD_CAT_ID><ELEMENT_SET_NO>999</ELEMENT_SET_NO><REV_AT_EPOCH>473</REV_AT_EPOCH><BSTAR>.18591274E-2</BSTAR><MEAN_MOTION_DOT>.54027E-3</MEAN_MOTION_DOT><MEAN_MOTION_DDOT>0</MEAN_MOTION_DDOT></tleParameters></data></segment></body></omm>
<omm id="CCSDS_OMM_VERS" version="2.0">
<header><CREATION_DATE/><ORIGINATOR/></header><body><segment><metadata><OBJECT_NAME>KUIPER-00149</OBJECT_NAME><OBJECT_ID>2025-228X</OBJECT_ID><CENTER_NAME>EARTH</CENTER_NAME><REF_FRAME>TEME</REF_FRAME><TIME_SYSTEM>UTC</TIME_SYSTEM><MEAN_ELEMENT_THEORY>SGP4</MEAN_ELEMENT_THEORY></metadata><data><meanElements><EPOCH>2025-12-30T04:54:25.534944</EPOCH><MEAN_MOTION>15.36594840</MEAN_MOTION><ECCENTRICITY>.00049818</ECCENTRICITY><INCLINATION>51.8799</INCLINATION><RA_OF_ASC_NODE>296.1139</RA_OF_ASC_NODE><ARG_OF_PERICENTER>76.9091</ARG_OF_PERICENTER><MEAN_ANOMALY>283.2452</MEAN_ANOMALY></meanElements><tleParameters><EPHEMERIS_TYPE>0</EPHEMERIS_TYPE><CLASSIFICATION_TYPE>U</CLASSIFICATION_TYPE><NORAD_CAT_ID>65968</NORAD_CAT_ID><ELEMENT_SET_NO>999</ELEMENT_SET_NO><REV_AT_EPOCH>1310</REV_AT_EPOCH><BSTAR>.156896E-2</BSTAR><MEAN_MOTION_DOT>.56983E-3</MEAN_MOTION_DOT><MEAN_MOTION_DDOT>0</MEAN_MOTION_DDOT></tleParameters></data></segment></body></omm>
<omm id="CCSDS_OMM_VERS" version="2.0">
<header><CREATION_DATE/><ORIGINATOR/></header><body><segment><metadata><OBJECT_NAME>KUIPER-00154</OBJECT_NAME><OBJECT_ID>2025-228Y</OBJECT_ID><CENTER_NAME>EARTH</CENTER_NAME><REF_FRAME>TEME</REF_FRAME><TIME_SYSTEM>UTC</TIME_SYSTEM><MEAN_ELEMENT_THEORY>SGP4</MEAN_ELEMENT_THEORY></metadata><data><meanElements><EPOCH>2025-12-30T05:01:32.731104</EPOCH><MEAN_MOTION>15.36465446</MEAN_MOTION><ECCENTRICITY>.00068392</ECCENTRICITY><INCLINATION>51.8795</INCLINATION><RA_OF_ASC_NODE>296.1414</RA_OF_ASC_NODE><ARG_OF_PERICENTER>74.9680</ARG_OF_PERICENTER><MEAN_ANOMALY>285.2063</MEAN_ANOMALY></meanElements><tleParameters><EPHEMERIS_TYPE>0</EPHEMERIS_TYPE><CLASSIFICATION_TYPE>U</CLASSIFICATION_TYPE><NORAD_CAT_ID>65969</NORAD_CAT_ID><ELEMENT_SET_NO>999</ELEMENT_SET_NO><REV_AT_EPOCH>1310</REV_AT_EPOCH><BSTAR>.16239691E-2</BSTAR><MEAN_MOTION_DOT>.58781E-3</MEAN_MOTION_DOT><MEAN_MOTION_DDOT>0</MEAN_MOTION_DDOT></tleParameters></data></segment></body></omm>

</ndm>
