KUIPER-00136            
1 65962U 25228R   25364.33335648 -.00081858  00000+0 -51950-2 0  9995
2 65962  51.8896 297.2477 0005284 102.1855  46.0515 15.08720783  2741
KUIPER-00137            
1 65963U 25228S   25364.33335648 -.00997616  00000+0 -48655-1 0  9991
2 65963  51.8850 296.2795 0005824  92.8016 247.9258 15.20656240  3262
KUIPER-00138            
1 65964U 25228T   25364.33335648 -.01052246  00000+0 -38027-1 0  9996
2 65964  51.8802 295.8526 0007677  85.0939  94.5360 15.30667943  4717
KUIPER-00140            
1 65965U 25228U   25364.33335648 -.00925002  00000+0 -46444-1 0  9997
2 65965  51.8833 296.6036 0007194  76.8377  58.8437 15.19442690  5058
KUIPER-00141            
1 65966U 25228V   25364.33335648 -.01555680  00000+0 -49631-1 0  9991
2 65966  51.8794 295.4464 0004492  94.4975 274.3560 15.35334834  4245
KUIPER-00146            
1 65967U 25228W   25364.33335648  .00054027  00000+0  18591-2 0  9990
2 65967  51.8803 295.8522 0007283  90.8704  74.8766 15.29514105  4736
KUIPER-00149            
1 65968U 25228X   25364.20446221  .00056983  00000+0  15690-2 0  9997
2 65968  51.8799 296.1139 0004981  76.9091 283.2452 15.36594840 13106
KUIPER-00154            
1 65969U 25228Y   25364.20940661  .00058781  00000+0  16240-2 0  9995
2 65969  51.8795 296.1414 0006839  74.9680 285.2063 15.36465446 13104
